start=new Date('2022-12-03T00:00:00.000Z').valueOf();
sats=[{"CENTER_NAME":"EARTH","COUNTRY_CODE":"US","FILE":"3679245","MEAN_ELEMENT_THEORY":"SGP4","REV_AT_EPOCH":"3132","TLE_LINE2":"2 52542  53.2190  85.2757 0002457  41.6364 318.4815 15.08835378 31323","MEAN_MOTION_DOT":"-0.00000546","TLE_LINE1":"1 52542U 22051K   22336.56446668 -.00000546  00000-0 -16209-4 0  9998","INCLINATION":"53.2190","SITE":"AFWTR","PERIOD":"95.438","EPHEMERIS_TYPE":"0","RA_OF_ASC_NODE":"85.2757","PERIAPSIS":"538.060","OBJECT_ID":"2022-051K","ARG_OF_PERICENTER":"41.6364","TIME_SYSTEM":"UTC","NORAD_CAT_ID":"52542","RCS_SIZE":"LARGE","MEAN_ANOMALY":"318.4815","SEMIMAJOR_AXIS":"6917.895","REF_FRAME":"TEME","CLASSIFICATION_TYPE":"U","ECCENTRICITY":"0.00024570","ELEMENT_SET_NO":"999","MEAN_MOTION":"15.08835378","OBJECT_TYPE":"PAYLOAD","BSTAR":"-0.00001620900000","APOAPSIS":"541.459","LAUNCH_DATE":"2022-05-13","DECAY_DATE":null,"EPOCH":"2022-12-02T13:32:49.921152","GP_ID":"219350624","MEAN_MOTION_DDOT":"0.0000000000000","OBJECT_NAME":"STARLINK-3937"},{"RA_OF_ASC_NODE":"85.2245","OBJECT_ID":"2022-051L","PERIAPSIS":"538.518","ARG_OF_PERICENTER":"44.5895","INCLINATION":"53.2190","SITE":"AFWTR","PERIOD":"95.438","EPHEMERIS_TYPE":"0","COUNTRY_CODE":"US","FILE":"3679245","MEAN_ELEMENT_THEORY":"SGP4","REV_AT_EPOCH":"3132","TLE_LINE2":"2 52543  53.2190  85.2245 0001807  44.5895 315.5243 15.08832468 31325","MEAN_MOTION_DOT":"-0.00000185","TLE_LINE1":"1 52543U 22051L   22336.57550727 -.00000185  00000-0  64716-5 0  9997","CENTER_NAME":"EARTH","LAUNCH_DATE":"2022-05-13","APOAPSIS":"541.018","DECAY_DATE":null,"EPOCH":"2022-12-02T13:48:43.828128","GP_ID":"219351874","OBJECT_NAME":"STARLINK-3926","MEAN_MOTION_DDOT":"0.0000000000000","BSTAR":"0.00000647160000","CLASSIFICATION_TYPE":"U","REF_FRAME":"TEME","ECCENTRICITY":"0.00018070","ELEMENT_SET_NO":"999","OBJECT_TYPE":"PAYLOAD","MEAN_MOTION":"15.08832468","TIME_SYSTEM":"UTC","NORAD_CAT_ID":"52543","MEAN_ANOMALY":"315.5243","RCS_SIZE":"LARGE","SEMIMAJOR_AXIS":"6917.903"},{"COUNTRY_CODE":"US","FILE":"3679625","MEAN_ELEMENT_THEORY":"SGP4","TLE_LINE2":"2 52544  53.2174  90.1376 0002827  48.3899 311.7335 15.08846425 31257","REV_AT_EPOCH":"3125","MEAN_MOTION_DOT":"0.00000042","TLE_LINE1":"1 52544U 22051M   22336.59527330  .00000042  00000-0  20767-4 0  9992","CENTER_NAME":"EARTH","RA_OF_ASC_NODE":"90.1376","PERIAPSIS":"537.770","OBJECT_ID":"2022-051M","ARG_OF_PERICENTER":"48.3899","INCLINATION":"53.2174","SITE":"AFWTR","PERIOD":"95.437","EPHEMERIS_TYPE":"0","CLASSIFICATION_TYPE":"U","REF_FRAME":"TEME","ELEMENT_SET_NO":"999","ECCENTRICITY":"0.00028270","MEAN_MOTION":"15.08846425","OBJECT_TYPE":"PAYLOAD","TIME_SYSTEM":"UTC","NORAD_CAT_ID":"52544","RCS_SIZE":"LARGE","MEAN_ANOMALY":"311.7335","SEMIMAJOR_AXIS":"6917.861","APOAPSIS":"541.681","LAUNCH_DATE":"2022-05-13","DECAY_DATE":null,"EPOCH":"2022-12-02T14:17:11.613120","GP_ID":"219382737","OBJECT_NAME":"STARLINK-3944","MEAN_MOTION_DDOT":"0.0000000000000","BSTAR":"0.00002076700000"},{"RCS_SIZE":"LARGE","MEAN_ANOMALY":"319.8113","NORAD_CAT_ID":"52545","TIME_SYSTEM":"UTC","SEMIMAJOR_AXIS":"6917.861","REF_FRAME":"TEME","CLASSIFICATION_TYPE":"U","OBJECT_TYPE":"PAYLOAD","MEAN_MOTION":"15.08846210","ECCENTRICITY":"0.00027810","ELEMENT_SET_NO":"999","BSTAR":"0.00013511000000","GP_ID":"219383489","EPOCH":"2022-12-02T15:18:48.040992","DECAY_DATE":null,"APOAPSIS":"541.650","LAUNCH_DATE":"2022-05-13","OBJECT_NAME":"STARLINK-3939","MEAN_MOTION_DDOT":"0.0000000000000","CENTER_NAME":"EARTH","FILE":"3679625","COUNTRY_CODE":"US","TLE_LINE1":"1 52545U 22051N   22336.63805603  .00001863  00000-0  13511-3 0  9990","TLE_LINE2":"2 52545  53.2183  84.9495 0002781  40.3084 319.8113 15.08846210 31332","MEAN_MOTION_DOT":"0.00001863","REV_AT_EPOCH":"3133","MEAN_ELEMENT_THEORY":"SGP4","INCLINATION":"53.2183","SITE":"AFWTR","EPHEMERIS_TYPE":"0","PERIOD":"95.437","OBJECT_ID":"2022-051N","PERIAPSIS":"537.803","RA_OF_ASC_NODE":"84.9495","ARG_OF_PERICENTER":"40.3084"},{"INCLINATION":"53.2166","SITE":"AFWTR","EPHEMERIS_TYPE":"0","PERIOD":"95.437","PERIAPSIS":"538.226","OBJECT_ID":"2022-051P","RA_OF_ASC_NODE":"84.7132","ARG_OF_PERICENTER":"40.9973","CENTER_NAME":"EARTH","FILE":"3679625","COUNTRY_CODE":"US","TLE_LINE1":"1 52546U 22051P   22336.69053510  .00001657  00000-0  12218-3 0  9993","MEAN_MOTION_DOT":"0.00001657","TLE_LINE2":"2 52546  53.2166  84.7132 0002185  40.9973 319.1183 15.08842681 31340","REV_AT_EPOCH":"3134","MEAN_ELEMENT_THEORY":"SGP4","BSTAR":"0.00012218000000","GP_ID":"219383239","EPOCH":"2022-12-02T16:34:22.232640","DECAY_DATE":null,"LAUNCH_DATE":"2022-05-13","APOAPSIS":"541.249","OBJECT_NAME":"STARLINK-3948","MEAN_MOTION_DDOT":"0.0000000000000","MEAN_ANOMALY":"319.1183","RCS_SIZE":"LARGE","NORAD_CAT_ID":"52546","TIME_SYSTEM":"UTC","SEMIMAJOR_AXIS":"6917.872","REF_FRAME":"TEME","CLASSIFICATION_TYPE":"U","MEAN_MOTION":"15.08842681","OBJECT_TYPE":"PAYLOAD","ECCENTRICITY":"0.00021850","ELEMENT_SET_NO":"999"},{"MEAN_MOTION_DDOT":"0.0000000000000","OBJECT_NAME":"STARLINK-3869","EPOCH":"2022-12-02T14:22:29.652384","GP_ID":"219381987","APOAPSIS":"541.272","LAUNCH_DATE":"2022-05-13","DECAY_DATE":null,"BSTAR":"0.00012932000000","MEAN_MOTION":"15.08846916","OBJECT_TYPE":"PAYLOAD","ECCENTRICITY":"0.00022370","ELEMENT_SET_NO":"999","CLASSIFICATION_TYPE":"U","REF_FRAME":"TEME","SEMIMAJOR_AXIS":"6917.859","MEAN_ANOMALY":"312.4766","RCS_SIZE":"LARGE","TIME_SYSTEM":"UTC","NORAD_CAT_ID":"52547","ARG_OF_PERICENTER":"47.6416","PERIAPSIS":"538.177","OBJECT_ID":"2022-051Q","RA_OF_ASC_NODE":"90.1202","PERIOD":"95.437","EPHEMERIS_TYPE":"0","INCLINATION":"53.2189","SITE":"AFWTR","TLE_LINE1":"1 52547U 22051Q   22336.59895431  .00001771  00000-0  12932-3 0  9999","MEAN_ELEMENT_THEORY":"SGP4","REV_AT_EPOCH":"3125","TLE_LINE2":"2 52547  53.2189  90.1202 0002237  47.6416 312.4766 15.08846916 31257","MEAN_MOTION_DOT":"0.00001771","FILE":"3679625","COUNTRY_CODE":"US","CENTER_NAME":"EARTH"},{"CENTER_NAME":"EARTH","FILE":"3679625","COUNTRY_CODE":"US","TLE_LINE1":"1 52548U 22051R   22336.67486374  .00001382  00000-0  10495-3 0  9991","MEAN_ELEMENT_THEORY":"SGP4","REV_AT_EPOCH":"3134","TLE_LINE2":"2 52548  53.2203  84.7793 0002042  40.4467 319.6677 15.08836626 31347","MEAN_MOTION_DOT":"0.00001382","SITE":"AFWTR","INCLINATION":"53.2203","PERIOD":"95.438","EPHEMERIS_TYPE":"0","OBJECT_ID":"2022-051R","PERIAPSIS":"538.343","RA_OF_ASC_NODE":"84.7793","ARG_OF_PERICENTER":"40.4467","RCS_SIZE":"LARGE","MEAN_ANOMALY":"319.6677","TIME_SYSTEM":"UTC","NORAD_CAT_ID":"52548","SEMIMAJOR_AXIS":"6917.891","CLASSIFICATION_TYPE":"U","REF_FRAME":"TEME","MEAN_MOTION":"15.08836626","OBJECT_TYPE":"PAYLOAD","ECCENTRICITY":"0.00020420","ELEMENT_SET_NO":"999","BSTAR":"0.00010495000000","EPOCH":"2022-12-02T16:11:48.227136","GP_ID":"219382237","LAUNCH_DATE":"2022-05-13","APOAPSIS":"541.168","DECAY_DATE":null,"OBJECT_NAME":"STARLINK-3931","MEAN_MOTION_DDOT":"0.0000000000000"},{"PERIOD":"95.438","EPHEMERIS_TYPE":"0","SITE":"AFWTR","INCLINATION":"53.2192","ARG_OF_PERICENTER":"50.9101","RA_OF_ASC_NODE":"84.6893","PERIAPSIS":"538.626","OBJECT_ID":"2022-051S","CENTER_NAME":"EARTH","MEAN_ELEMENT_THEORY":"SGP4","TLE_LINE2":"2 52549  53.2192  84.6893 0001683  50.9101 309.2041 15.08825460 31340","MEAN_MOTION_DOT":"-0.00002188","REV_AT_EPOCH":"3134","TLE_LINE1":"1 52549U 22051S   22336.69327787 -.00002188  00000-0 -11945-3 0  9994","COUNTRY_CODE":"US","FILE":"3679625","BSTAR":"-0.00011945000000","MEAN_MOTION_DDOT":"0.0000000000000","OBJECT_NAME":"STARLINK-3935","APOAPSIS":"540.954","LAUNCH_DATE":"2022-05-13","DECAY_DATE":null,"EPOCH":"2022-12-02T16:38:19.207968","GP_ID":"219382989","SEMIMAJOR_AXIS":"6917.925","TIME_SYSTEM":"UTC","NORAD_CAT_ID":"52549","MEAN_ANOMALY":"309.2041","RCS_SIZE":"LARGE","ELEMENT_SET_NO":"999","ECCENTRICITY":"0.00016830","MEAN_MOTION":"15.08825460","OBJECT_TYPE":"PAYLOAD","CLASSIFICATION_TYPE":"U","REF_FRAME":"TEME"},{"MEAN_ANOMALY":"321.3044","RCS_SIZE":"LARGE","TIME_SYSTEM":"UTC","NORAD_CAT_ID":"52550","SEMIMAJOR_AXIS":"6917.857","CLASSIFICATION_TYPE":"U","REF_FRAME":"TEME","OBJECT_TYPE":"PAYLOAD","MEAN_MOTION":"15.08847682","ECCENTRICITY":"0.00024840","ELEMENT_SET_NO":"999","BSTAR":"0.00001950300000","EPOCH":"2022-12-02T16:22:23.363904","GP_ID":"219383740","LAUNCH_DATE":"2022-05-13","APOAPSIS":"541.440","DECAY_DATE":null,"MEAN_MOTION_DDOT":"0.0000000000000","OBJECT_NAME":"STARLINK-3965","CENTER_NAME":"EARTH","FILE":"3679625","COUNTRY_CODE":"US","TLE_LINE1":"1 52550U 22051T   22336.68221486  .00000022  00000-0  19503-4 0  9996","MEAN_ELEMENT_THEORY":"SGP4","MEAN_MOTION_DOT":"0.00000022","TLE_LINE2":"2 52550  53.2194  84.7431 0002484  38.8126 321.3044 15.08847682 31343","REV_AT_EPOCH":"3134","SITE":"AFWTR","INCLINATION":"53.2194","PERIOD":"95.437","EPHEMERIS_TYPE":"0","OBJECT_ID":"2022-051T","PERIAPSIS":"538.004","RA_OF_ASC_NODE":"84.7431","ARG_OF_PERICENTER":"38.8126"},{"RA_OF_ASC_NODE":"86.2026","OBJECT_ID":"2022-051U","PERIAPSIS":"538.353","ARG_OF_PERICENTER":"43.6501","INCLINATION":"53.2200","SITE":"AFWTR","PERIOD":"95.437","EPHEMERIS_TYPE":"0","COUNTRY_CODE":"US","FILE":"3679245","MEAN_ELEMENT_THEORY":"SGP4","MEAN_MOTION_DOT":"0.00001295","TLE_LINE2":"2 52551  53.2200  86.2026 0001975  43.6501 316.4647 15.08848387 31295","REV_AT_EPOCH":"3129","TLE_LINE1":"1 52551U 22051U   22336.35837380  .00001295  00000-0  99402-4 0  9996","CENTER_NAME":"EARTH","LAUNCH_DATE":"2022-05-13","APOAPSIS":"541.086","DECAY_DATE":null,"EPOCH":"2022-12-02T08:36:03.496320","GP_ID":"219351875","MEAN_MOTION_DDOT":"0.0000000000000","OBJECT_NAME":"STARLINK-3969","BSTAR":"0.00009940200000","REF_FRAME":"TEME","CLASSIFICATION_TYPE":"U","ELEMENT_SET_NO":"999","ECCENTRICITY":"0.00019750","OBJECT_TYPE":"PAYLOAD","MEAN_MOTION":"15.08848387","TIME_SYSTEM":"UTC","NORAD_CAT_ID":"52551","MEAN_ANOMALY":"316.4647","RCS_SIZE":"LARGE","SEMIMAJOR_AXIS":"6917.855"}];
